*******************************************************************************
Ephemeris / WWW_USER Mon Mar 26 20:56:37 2018 Pasadena, USA      / Horizons    
*******************************************************************************
Target body name: Amalthea (505)                  {source: jup310}
Center body name: Jupiter Barycenter (5)          {source: DE431mx}
Center-site name: BODY CENTER
*******************************************************************************
Start time      : A.D. 2000-Jan-01 00:00:00.0000 TDB
Stop  time      : A.D. 2010-Jan-01 00:00:00.0000 TDB
Step-size       : 7200 minutes
*******************************************************************************
Center geodetic : 0.00000000,0.00000000,0.0000000 {E-lon(deg),Lat(deg),Alt(km)}
Center cylindric: 0.00000000,0.00000000,0.0000000 {E-lon(deg),Dxy(km),Dz(km)}
Center radii    : (undefined)                                                  
Output units    : AU-D                                                         
Output type     : GEOMETRIC cartesian states
Output format   : 2 (position and velocity)
Reference frame : ICRF/J2000.0                                                 
Coordinate systm: Ecliptic and Mean Equinox of Reference Epoch                 
*******************************************************************************
JDTDB
   X     Y     Z
   VX    VY    VZ
*******************************************************************************
$$SOE
2451964.500000000 = A.D. 2001-Feb-24 00:00:00.0000 TDB 
   2.960224892948723E-04  1.169160620862344E-03  5.280217845248265E-05
  -1.487298175785829E-02  3.762907133771719E-03 -1.389435242876767E-04
2451969.500000000 = A.D. 2001-Mar-01 00:00:00.0000 TDB 
   2.089146655874125E-05  1.207803437298057E-03  4.759654121402031E-05
  -1.533736885293055E-02  2.800795603426213E-04 -3.013118198872456E-04
2451974.500000000 = A.D. 2001-Mar-06 00:00:00.0000 TDB 
  -2.546371470064357E-04  1.181232713170549E-03  3.925275004474163E-05
  -1.499688955527717E-02 -3.216611501431770E-03 -4.351896608020721E-04
2451979.500000000 = A.D. 2001-Mar-11 00:00:00.0000 TDB 
  -5.162948078814686E-04  1.090784553670870E-03  2.869627754032625E-05
  -1.386607641762754E-02 -6.545408100264135E-03 -5.315698622940642E-04
2451984.500000000 = A.D. 2001-Mar-16 00:00:00.0000 TDB 
  -7.512766808910446E-04  9.458086699920590E-04  1.713679574263501E-05
  -1.200866258265225E-02 -9.530789821192952E-03 -5.863731759330946E-04
2451989.500000000 = A.D. 2001-Mar-21 00:00:00.0000 TDB 
  -9.475613335771703E-04  7.511412451210825E-04  5.501047258163627E-06
  -9.521662851536291E-03 -1.201627782286951E-02 -6.003331380662957E-04
2451994.500000000 = A.D. 2001-Mar-26 00:00:00.0000 TDB 
  -1.093037830617809E-03  5.138893827070815E-04 -5.418073189402889E-06
  -6.532331807503639E-03 -1.387023153777634E-02 -5.782733989657500E-04
2451999.500000000 = A.D. 2001-Mar-31 00:00:00.0000 TDB 
  -1.181116346887463E-03  2.519836333453694E-04 -1.483224189936633E-05
  -3.201568757341523E-03 -1.499642749222932E-02 -5.279372956848767E-04
2452004.500000000 = A.D. 2001-Apr-05 00:00:00.0000 TDB 
  -1.208230548002766E-03 -2.177745400671998E-05 -2.247487802346290E-05
   2.969622531338114E-04 -1.533341688641494E-02 -4.579652638260569E-04
2452009.500000000 = A.D. 2001-Apr-10 00:00:00.0000 TDB 
  -1.170623112440090E-03 -2.975629287816370E-04 -2.844416696003911E-05
   3.781991940420167E-03 -1.486380128018839E-02 -3.765008074618461E-04
2452014.500000000 = A.D. 2001-Apr-15 00:00:00.0000 TDB 
  -1.071610343380700E-03 -5.573339252901182E-04 -3.280936400720474E-05
   7.068309215729597E-03 -1.361410111618792E-02 -2.899080252038173E-04
2452019.500000000 = A.D. 2001-Apr-20 00:00:00.0000 TDB 
  -9.172421039253617E-04 -7.851860114857170E-04 -3.577849117816351E-05
   9.982543110106875E-03 -1.164979057303555E-02 -2.018369345443897E-04
2452024.500000000 = A.D. 2001-Apr-25 00:00:00.0000 TDB 
  -7.142219086095397E-04 -9.733877833786335E-04 -3.775546397907102E-05
   1.237284446776826E-02 -9.071869114737063E-03 -1.132065687112767E-04
2452029.500000000 = A.D. 2001-Apr-30 00:00:00.0000 TDB 
  -4.731634932254937E-04 -1.112205163453307E-03 -3.889631232891787E-05
   1.411355776695820E-02 -6.017382532716289E-03 -2.313559173469119E-05
2452034.500000000 = A.D. 2001-May-05 00:00:00.0000 TDB 
  -2.074108469984019E-04 -1.189419457491637E-03 -3.902760213753892E-05
   1.511204961389591E-02 -2.647019179960507E-03  7.013144146732908E-05
2452039.500000000 = A.D. 2001-May-10 00:00:00.0000 TDB 
   6.856562211914092E-05 -1.204428746642054E-03 -3.808908447496086E-05
   1.531589142314008E-02  8.621601726887191E-04  1.678039358495081E-04
2452044.500000000 = A.D. 2001-May-15 00:00:00.0000 TDB 
   3.418864619098086E-04 -1.159389896345124E-03 -3.583594660141039E-05
   1.471868455194369E-02  4.326021742001432E-03  2.693015185799117E-04
2452049.500000000 = A.D. 2001-May-20 00:00:00.0000 TDB 
   5.970414669897930E-04 -1.050801409320235E-03 -3.171687557205399E-05
   1.334519313417095E-02  7.561378550610742E-03  3.711847784374239E-04
2452054.500000000 = A.D. 2001-May-25 00:00:00.0000 TDB 
   8.198090104044202E-04 -8.856962393691657E-04 -2.549164670867328E-05
   1.126952671746807E-02  1.039821414527099E-02  4.672557389798412E-04
2452059.500000000 = A.D. 2001-May-30 00:00:00.0000 TDB 
   1.000634048298338E-03 -6.769253954086095E-04 -1.718124753913691E-05
   8.604059328923571E-03  1.269063486598081E-02  5.490172019699653E-04
2452064.500000000 = A.D. 2001-Jun-04 00:00:00.0000 TDB 
   1.128917604289683E-03 -4.323661715345776E-04 -6.863877928837887E-06
   5.486198016596654E-03  1.431451655874092E-02  6.064162053434120E-04
2452069.500000000 = A.D. 2001-Jun-09 00:00:00.0000 TDB 
   1.197272840665827E-03 -1.625869828953581E-04  5.035976435434923E-06
   2.079434176363967E-03  1.518773673876120E-02  6.300617136751101E-04
2452074.500000000 = A.D. 2001-Jun-14 00:00:00.0000 TDB 
   1.202696957369911E-03  1.139819113663550E-04  1.756884912110664E-05
  -1.436334749495531E-03  1.526253642496553E-02  6.125298096227015E-04
2452079.500000000 = A.D. 2001-Jun-19 00:00:00.0000 TDB 
   1.145380452230280E-03  3.825808573634092E-04  2.971201088813152E-05
  -4.874615647396240E-03  1.453546386168020E-02  5.502700776144644E-04
2452084.500000000 = A.D. 2001-Jun-24 00:00:00.0000 TDB 
   1.027643587555343E-03  6.346402897601709E-04  4.051969863415165E-05
  -8.059235292531755E-03  1.304615143096752E-02  4.445030129255164E-04
2452089.500000000 = A.D. 2001-Jun-29 00:00:00.0000 TDB 
   8.553998185710123E-04  8.529207026141926E-04  4.877467062189943E-05
  -1.082008088326984E-02  1.087219607661885E-02  3.016637792308354E-04
2452094.500000000 = A.D. 2001-Jul-04 00:00:00.0000 TDB 
   6.392616123870286E-04  1.023238179866684E-03  5.354297013561381E-05
  -1.301059915637004E-02  8.128588740059497E-03  1.328623432984050E-04
2452099.500000000 = A.D. 2001-Jul-09 00:00:00.0000 TDB 
   3.891932123414074E-04  1.142297627110446E-03  5.448583713079087E-05
  -1.451793650645637E-02  4.956534770493082E-03 -4.757801861194095E-05
2452104.500000000 = A.D. 2001-Jul-14 00:00:00.0000 TDB 
   1.179496199639867E-04  1.202486799266843E-03  5.145470468078371E-05
  -1.526357091918679E-02  1.524432151539110E-03 -2.236196512085860E-04
2452109.500000000 = A.D. 2001-Jul-19 00:00:00.0000 TDB 
  -1.588590482223515E-04  1.196863085205460E-03  4.466971185878365E-05
  -1.520625227897999E-02 -1.987274710751390E-03 -3.798779188021828E-04
2452114.500000000 = A.D. 2001-Jul-24 00:00:00.0000 TDB 
  -4.271847771328334E-04  1.128738729213273E-03  3.496021863795325E-05
  -1.435115884388575E-02 -5.396037964349745E-03 -5.036974882750908E-04
2452119.500000000 = A.D. 2001-Jul-29 00:00:00.0000 TDB 
  -6.733353884854743E-04  1.004007787653685E-03  2.339181011041361E-05
  -1.274378557445252E-02 -8.521480345082844E-03 -5.864856050666256E-04
2452124.500000000 = A.D. 2001-Aug-03 00:00:00.0000 TDB 
  -8.842409976508927E-04  8.245510623260467E-04  1.091988967468996E-05
  -1.046553760906511E-02 -1.119853581360879E-02 -6.246244557220967E-04
2452129.500000000 = A.D. 2001-Aug-08 00:00:00.0000 TDB 
  -1.048083365099449E-03  5.996790513998215E-04 -1.359564010908840E-06
  -7.636735704169110E-03 -1.328873871950396E-02 -6.197842713086635E-04
2452134.500000000 = A.D. 2001-Aug-13 00:00:00.0000 TDB 
  -1.157338043098860E-03  3.468442618945417E-04 -1.236092907673166E-05
  -4.409192287801324E-03 -1.468090596308778E-02 -5.777618805663732E-04
2452139.500000000 = A.D. 2001-Aug-18 00:00:00.0000 TDB 
  -1.206421699404408E-03  7.525349503715208E-05 -2.159655220017327E-05
  -9.501733665667120E-04 -1.530274121373310E-02 -5.072491440695527E-04
2452144.500000000 = A.D. 2001-Aug-23 00:00:00.0000 TDB 
  -1.191043397489538E-03 -2.032821631013764E-04 -2.881930510894824E-05
   2.560962156794314E-03 -1.511873136562971E-02 -4.179684003110836E-04
2452149.500000000 = A.D. 2001-Aug-28 00:00:00.0000 TDB 
  -1.113386090070586E-03 -4.686488461777051E-04 -3.384626325812179E-05
   5.935737017800220E-03 -1.414060188768652E-02 -3.192733225065138E-04
2452154.500000000 = A.D. 2001-Sep-02 00:00:00.0000 TDB 
  -9.775580313554032E-04 -7.084140502419258E-04 -3.694977528951901E-05
   8.999188309311568E-03 -1.241952293332391E-02 -2.183912828928157E-04
2452159.500000000 = A.D. 2001-Sep-07 00:00:00.0000 TDB 
  -7.901252928718300E-04 -9.137909948709710E-04 -3.860408206343078E-05
   1.159099547660330E-02 -1.004498781006564E-02 -1.197800344369590E-04
2452164.500000000 = A.D. 2001-Sep-12 00:00:00.0000 TDB 
  -5.611406636218768E-04 -1.070869050701753E-03 -3.904031227724051E-05
   1.357507698546786E-02 -7.144447713205633E-03 -2.518353245581726E-05
2452169.500000000 = A.D. 2001-Sep-17 00:00:00.0000 TDB 
  -3.027320093774305E-04 -1.168590821703272E-03 -3.841176678868469E-05
   1.484279545997206E-02 -3.866954231446447E-03  6.604333797817205E-05
